LANDSAT 9               
1 49260U 21088A   24246.76759904  .00001632  00000+0  37209-3 0  9990
2 49260  98.2263 315.4055 0001183  94.0660 266.0673 14.57128536155984
